CCSDS_OMM_VERS = 2.0
CREATION_DATE  = 
ORIGINATOR     = 

OBJECT_NAME    = STARLINK-36992
OBJECT_ID      = 2026-049H
CENTER_NAME    = EARTH
REF_FRAME      = TEME
TIME_SYSTEM    = UTC
MEAN_ELEMENT_THEORY = SGP/SGP4

EPOCH          = 2026-04-05T12:00:35.387712
MEAN_MOTION    = 15.80942838
ECCENTRICITY   = .00009849
INCLINATION    = 97.2847
RA_OF_ASC_NODE = 116.1439
ARG_OF_PERICENTER = 74.0251
MEAN_ANOMALY   = 286.1126

EPHEMERIS_TYPE = 0
CLASSIFICATION_TYPE = U
NORAD_CAT_ID   = 68149
ELEMENT_SET_NO = 999
REV_AT_EPOCH   = 364
BSTAR          = .12358338E-2
MEAN_MOTION_DOT = .244754E-2
MEAN_MOTION_DDOT = 0

CCSDS_OMM_VERS = 2.0
CREATION_DATE  = 
ORIGINATOR     = 

OBJECT_NAME    = STARLINK-37060
OBJECT_ID      = 2026-049J
CENTER_NAME    = EARTH
REF_FRAME      = TEME
TIME_SYSTEM    = UTC
MEAN_ELEMENT_THEORY = SGP/SGP4

EPOCH          = 2026-04-05T13:30:39.649824
MEAN_MOTION    = 15.80924489
ECCENTRICITY   = .00015832
INCLINATION    = 97.2849
RA_OF_ASC_NODE = 116.2121
ARG_OF_PERICENTER = 99.0371
MEAN_ANOMALY   = 261.1077

EPHEMERIS_TYPE = 0
CLASSIFICATION_TYPE = U
NORAD_CAT_ID   = 68150
ELEMENT_SET_NO = 999
REV_AT_EPOCH   = 365
BSTAR          = .95853829E-3
MEAN_MOTION_DOT = .188415E-2
MEAN_MOTION_DDOT = 0

CCSDS_OMM_VERS = 2.0
CREATION_DATE  = 
ORIGINATOR     = 

OBJECT_NAME    = STARLINK-37073
OBJECT_ID      = 2026-049K
CENTER_NAME    = EARTH
REF_FRAME      = TEME
TIME_SYSTEM    = UTC
MEAN_ELEMENT_THEORY = SGP/SGP4

EPOCH          = 2026-04-05T13:52:53.253696
MEAN_MOTION    = 15.75282807
ECCENTRICITY   = .00012203
INCLINATION    = 97.2844
RA_OF_ASC_NODE = 116.1906
ARG_OF_PERICENTER = 117.0088
MEAN_ANOMALY   = 243.1302

EPHEMERIS_TYPE = 0
CLASSIFICATION_TYPE = U
NORAD_CAT_ID   = 68151
ELEMENT_SET_NO = 999
REV_AT_EPOCH   = 365
BSTAR          = .10733333E-2
MEAN_MOTION_DOT = .163726E-2
MEAN_MOTION_DDOT = 0

CCSDS_OMM_VERS = 2.0
CREATION_DATE  = 
ORIGINATOR     = 

OBJECT_NAME    = STARLINK-37049
OBJECT_ID      = 2026-049L
CENTER_NAME    = EARTH
REF_FRAME      = TEME
TIME_SYSTEM    = UTC
MEAN_ELEMENT_THEORY = SGP/SGP4

EPOCH          = 2026-04-05T14:00:03.000384
MEAN_MOTION    = 15.75258040
ECCENTRICITY   = .0001514
INCLINATION    = 97.2846
RA_OF_ASC_NODE = 116.2160
ARG_OF_PERICENTER = 103.8344
MEAN_ANOMALY   = 330.4660

EPHEMERIS_TYPE = 0
CLASSIFICATION_TYPE = U
NORAD_CAT_ID   = 68152
ELEMENT_SET_NO = 999
REV_AT_EPOCH   = 494
BSTAR          = -.79785347E-3
MEAN_MOTION_DOT = -.117858E-2
MEAN_MOTION_DDOT = 0

CCSDS_OMM_VERS = 2.0
CREATION_DATE  = 
ORIGINATOR     = 

OBJECT_NAME    = STARLINK-37072
OBJECT_ID      = 2026-049M
CENTER_NAME    = EARTH
REF_FRAME      = TEME
TIME_SYSTEM    = UTC
MEAN_ELEMENT_THEORY = SGP/SGP4

EPOCH          = 2026-04-05T13:57:58.265568
MEAN_MOTION    = 15.75253445
ECCENTRICITY   = .00013115
INCLINATION    = 97.2844
RA_OF_ASC_NODE = 116.1861
ARG_OF_PERICENTER = 87.5534
MEAN_ANOMALY   = 272.5882

EPHEMERIS_TYPE = 0
CLASSIFICATION_TYPE = U
NORAD_CAT_ID   = 68153
ELEMENT_SET_NO = 999
REV_AT_EPOCH   = 365
BSTAR          = .68154528E-3
MEAN_MOTION_DOT = .103044E-2
MEAN_MOTION_DDOT = 0

CCSDS_OMM_VERS = 2.0
CREATION_DATE  = 
ORIGINATOR     = 

OBJECT_NAME    = STARLINK-36241
OBJECT_ID      = 2026-049N
CENTER_NAME    = EARTH
REF_FRAME      = TEME
TIME_SYSTEM    = UTC
MEAN_ELEMENT_THEORY = SGP/SGP4

EPOCH          = 2026-04-05T14:15:14.882400
MEAN_MOTION    = 15.75287916
ECCENTRICITY   = .0001638
INCLINATION    = 97.2846
RA_OF_ASC_NODE = 116.1684
ARG_OF_PERICENTER = 103.8344
MEAN_ANOMALY   = 256.3104

EPHEMERIS_TYPE = 0
CLASSIFICATION_TYPE = U
NORAD_CAT_ID   = 68154
ELEMENT_SET_NO = 999
REV_AT_EPOCH   = 365
BSTAR          = .13295683E-2
MEAN_MOTION_DOT = .203852E-2
MEAN_MOTION_DDOT = 0

CCSDS_OMM_VERS = 2.0
CREATION_DATE  = 
ORIGINATOR     = 

OBJECT_NAME    = STARLINK-37048
OBJECT_ID      = 2026-049P
CENTER_NAME    = EARTH
REF_FRAME      = TEME
TIME_SYSTEM    = UTC
MEAN_ELEMENT_THEORY = SGP/SGP4

EPOCH          = 2026-04-05T13:23:05.172864
MEAN_MOTION    = 15.80918125
ECCENTRICITY   = .00015059
INCLINATION    = 97.2855
RA_OF_ASC_NODE = 116.2189
ARG_OF_PERICENTER = 99.4865
MEAN_ANOMALY   = 260.6574

EPHEMERIS_TYPE = 0
CLASSIFICATION_TYPE = U
NORAD_CAT_ID   = 68155
ELEMENT_SET_NO = 999
REV_AT_EPOCH   = 365
BSTAR          = .77395916E-3
MEAN_MOTION_DOT = .151414E-2
MEAN_MOTION_DDOT = 0

CCSDS_OMM_VERS = 2.0
CREATION_DATE  = 
ORIGINATOR     = 

OBJECT_NAME    = STARLINK-36313
OBJECT_ID      = 2026-049Q
CENTER_NAME    = EARTH
REF_FRAME      = TEME
TIME_SYSTEM    = UTC
MEAN_ELEMENT_THEORY = SGP/SGP4

EPOCH          = 2026-04-05T13:24:40.981824
MEAN_MOTION    = 15.79071862
ECCENTRICITY   = .0000905
INCLINATION    = 97.2854
RA_OF_ASC_NODE = 116.2169
ARG_OF_PERICENTER = 79.2149
MEAN_ANOMALY   = 280.9220

EPHEMERIS_TYPE = 0
CLASSIFICATION_TYPE = U
NORAD_CAT_ID   = 68156
ELEMENT_SET_NO = 999
REV_AT_EPOCH   = 365
BSTAR          = -.53424287E-2
MEAN_MOTION_DOT = -.857183E-2
MEAN_MOTION_DDOT = 0

CCSDS_OMM_VERS = 2.0
CREATION_DATE  = 
ORIGINATOR     = 

OBJECT_NAME    = STARLINK-37064
OBJECT_ID      = 2026-049R
CENTER_NAME    = EARTH
REF_FRAME      = TEME
TIME_SYSTEM    = UTC
MEAN_ELEMENT_THEORY = SGP/SGP4

EPOCH          = 2026-04-05T13:26:19.705920
MEAN_MOTION    = 15.80932668
ECCENTRICITY   = .00008446
INCLINATION    = 97.2850
RA_OF_ASC_NODE = 116.2153
ARG_OF_PERICENTER = 139.4231
MEAN_ANOMALY   = 220.7101

EPHEMERIS_TYPE = 0
CLASSIFICATION_TYPE = U
NORAD_CAT_ID   = 68157
ELEMENT_SET_NO = 999
REV_AT_EPOCH   = 365
BSTAR          = .10111695E-2
MEAN_MOTION_DOT = .199086E-2
MEAN_MOTION_DDOT = 0

CCSDS_OMM_VERS = 2.0
CREATION_DATE  = 
ORIGINATOR     = 

OBJECT_NAME    = STARLINK-37069
OBJECT_ID      = 2026-049S
CENTER_NAME    = EARTH
REF_FRAME      = TEME
TIME_SYSTEM    = UTC
MEAN_ELEMENT_THEORY = SGP/SGP4

EPOCH          = 2026-04-05T14:10:09.899904
MEAN_MOTION    = 15.75302515
ECCENTRICITY   = .00015967
INCLINATION    = 97.2845
RA_OF_ASC_NODE = 116.1736
ARG_OF_PERICENTER = 108.6347
MEAN_ANOMALY   = 251.5092

EPHEMERIS_TYPE = 0
CLASSIFICATION_TYPE = U
NORAD_CAT_ID   = 68158
ELEMENT_SET_NO = 999
REV_AT_EPOCH   = 365
BSTAR          = .1300183E-2
MEAN_MOTION_DOT = .199364E-2
MEAN_MOTION_DDOT = 0

CCSDS_OMM_VERS = 2.0
CREATION_DATE  = 
ORIGINATOR     = 

OBJECT_NAME    = STARLINK-37053
OBJECT_ID      = 2026-049T
CENTER_NAME    = EARTH
REF_FRAME      = TEME
TIME_SYSTEM    = UTC
MEAN_ELEMENT_THEORY = SGP/SGP4

EPOCH          = 2026-04-05T14:00:03.000384
MEAN_MOTION    = 15.75268505
ECCENTRICITY   = .00013148
INCLINATION    = 97.2848
RA_OF_ASC_NODE = 116.2318
ARG_OF_PERICENTER = 116.3706
MEAN_ANOMALY   = 353.9253

EPHEMERIS_TYPE = 0
CLASSIFICATION_TYPE = U
NORAD_CAT_ID   = 68159
ELEMENT_SET_NO = 999
REV_AT_EPOCH   = 494
BSTAR          = -.84316644E-3
MEAN_MOTION_DOT = -.124502E-2
MEAN_MOTION_DDOT = 0

CCSDS_OMM_VERS = 2.0
CREATION_DATE  = 
ORIGINATOR     = 

OBJECT_NAME    = STARLINK-36306
OBJECT_ID      = 2026-049U
CENTER_NAME    = EARTH
REF_FRAME      = TEME
TIME_SYSTEM    = UTC
MEAN_ELEMENT_THEORY = SGP/SGP4

EPOCH          = 2026-04-05T14:04:34.697280
MEAN_MOTION    = 15.75299406
ECCENTRICITY   = .0001371
INCLINATION    = 97.2844
RA_OF_ASC_NODE = 116.1792
ARG_OF_PERICENTER = 97.5301
MEAN_ANOMALY   = 262.6120

EPHEMERIS_TYPE = 0
CLASSIFICATION_TYPE = U
NORAD_CAT_ID   = 68160
ELEMENT_SET_NO = 999
REV_AT_EPOCH   = 365
BSTAR          = .13922495E-2
MEAN_MOTION_DOT = .213825E-2
MEAN_MOTION_DDOT = 0

