STARLINK-36992          
1 68149U 26049H   26095.50040958  .00244754  00000+0  12358-2 0  9998
2 68149  97.2847 116.1439 0000984  74.0251 286.1126 15.80942838  3649
STARLINK-37060          
1 68150U 26049J   26095.56295891  .00188415  00000+0  95854-3 0  9998
2 68150  97.2849 116.2121 0001583  99.0371 261.1077 15.80924489  3659
STARLINK-37073          
1 68151U 26049K   26095.57839414  .00163726  00000+0  10733-2 0  9995
2 68151  97.2844 116.1906 0001220 117.0088 243.1302 15.75282807  3655
STARLINK-37049          
1 68152U 26049L   26095.58336806 -.00117858  00000+0 -79785-3 0  9994
2 68152  97.2846 116.2160 0001514 103.8344 330.4660 15.75258040  4947
STARLINK-37072          
1 68153U 26049M   26095.58192437  .00103044  00000+0  68155-3 0  9994
2 68153  97.2844 116.1861 0001311  87.5534 272.5882 15.75253445  3650
STARLINK-36241          
1 68154U 26049N   26095.59392225  .00203852  00000+0  13296-2 0  9996
2 68154  97.2846 116.1684 0001638 103.8344 256.3104 15.75287916  3656
STARLINK-37048          
1 68155U 26049P   26095.55769876  .00151414  00000+0  77396-3 0  9991
2 68155  97.2855 116.2189 0001505  99.4865 260.6574 15.80918125  3657
STARLINK-36313          
1 68156U 26049Q   26095.55880766 -.00857183  00000+0 -53424-2 0  9997
2 68156  97.2854 116.2169 0000905  79.2149 280.9220 15.79071862  3658
STARLINK-37064          
1 68157U 26049R   26095.55995030  .00199086  00000+0  10112-2 0  9995
2 68157  97.2850 116.2153 0000844 139.4231 220.7101 15.80932668  3653
STARLINK-37069          
1 68158U 26049S   26095.59039236  .00199364  00000+0  13002-2 0  9997
2 68158  97.2845 116.1736 0001596 108.6347 251.5092 15.75302515  3652
STARLINK-37053          
1 68159U 26049T   26095.58336806 -.00124502  00000+0 -84317-3 0  9992
2 68159  97.2848 116.2318 0001314 116.3706 353.9253 15.75268505  4945
STARLINK-36306          
1 68160U 26049U   26095.58651270  .00213825  00000+0  13922-2 0  9997
2 68160  97.2844 116.1792 0001371  97.5301 262.6120 15.75299406  3652
